{"fetched_at":"2026-03-29T16:36:15Z","count":15609,"tles":[{"name":"SHIJIAN-6 05B (SJ-6 05B)","line1":"1 49962U 21122B   26087.69013041  .00003036  00000+0  18275-3 0  9992","line2":"2 49962  97.3741  71.0848 0001335  38.0841 322.0484 15.11545305237585","category":"Other"}]}